HERMES-2                
1 63243U 25052AK  26068.92847372  .00009456  00000+0  34839-3 0  9999
2 63243  97.4004 324.4926 0006340  99.4160 260.7796 15.28021069 54859
STARLINK-33936          
1 64005U 25101M   26068.14697958  .00039271  00000+0  14286-2 0  9999
2 64005  43.0037   0.9080 0001447 286.5421  73.5271 15.27589114 46979
